%YAML 1.1
%TAG !u! tag:unity3d.com,2011:
--- !u!114 &11400000
MonoBehaviour:
  m_ObjectHideFlags: 0
  m_CorrespondingSourceObject: {fileID: 0}
  m_PrefabInstance: {fileID: 0}
  m_PrefabAsset: {fileID: 0}
  m_GameObject: {fileID: 0}
  m_Enabled: 1
  m_EditorHideFlags: 0
  m_Script: {fileID: 11500000, guid: 3c3c350472192c149822725a54cc75ed, type: 3}
  m_Name: Earth
  m_EditorClassIdentifier: 
  mass: 5.97219e+24
  diameter: 12742000
  orbit:
    semimajorAxis: 1.49589e+11
    eccentricity: 0.0167
    inclination: 0
    lonAscNode: 0
    argPeriapsis: -1.7966
    trueAnomaly: 0
    meanAnomaly: 0
    anomaly: 0
    semiminorAxis: 0
    meanMotion: 0
    semiLatusRectum: 0
    timeToPeriapsis: 0
    period: 0
  isStar: 0
  hasSpacecraft: 1
  material: {fileID: 2100000, guid: aba251bab80144840928aef4889284f4, type: 2}
  bodiesOnOrbit:
  - {fileID: 11400000, guid: 9b09114719179fd4e92a6328f6d73ba3, type: 2}
  type: 1
